DMSP 5D-3 F16 (USA 172) 
1 28054U 03048A   26061.83490740  .00000175  00000+0  11501-3 0  9997
2 28054  98.9998  84.9103 0008198  89.7053 269.9397 14.14458897154440
METEOSAT-9 (MSG-2)      
1 28912U 05049B   26061.59713272  .00000112  00000+0  00000+0 0  9993
2 28912   9.1208  55.1996 0001907 219.8462 145.9946  1.00276214  5936
DMSP 5D-3 F17 (USA 191) 
1 29522U 06050A   26061.74815413  .00000212  00000+0  13173-3 0  9991
2 29522  98.7411  70.4845 0010157   6.7781 353.3528 14.14960218997362
FENGYUN 3A              
1 32958U 08026A   26061.75723353  .00000120  00000+0  77292-4 0  9996
2 32958  98.6790   4.6385 0009839  76.1481 284.0789 14.19543791920306
GOES 14                 
1 35491U 09033A   26061.69960778  .00000113  00000+0  00000+0 0  9997
2 35491   1.4145  84.4453 0002160 295.0799 235.5458  1.00123384  5523
DMSP 5D-3 F18 (USA 210) 
1 35951U 09057A   26061.85260985  .00000311  00000+0  18409-3 0  9991
2 35951  98.8952  42.9053 0010747 187.8876 172.2130 14.14830647844553
EWS-G2 (GOES 15)        
1 36411U 10008A   26061.86055566  .00000005  00000+0  00000+0 0  9993
2 36411   1.0052  85.1762 0001655  24.0248  64.7263  1.00269153 58571
COMS 1                  
1 36744U 10032A   26061.81745455 -.00000359  00000+0  00000+0 0  9990
2 36744   4.5320  76.8967 0001164 272.6803 233.4605  1.00272530 50023
FENGYUN 3B              
1 37214U 10059A   26061.88051047 -.00000305  00000+0 -13465-3 0  9991
2 37214  98.9786 107.3757 0022937 126.5324 341.5430 14.14813983792394
SUOMI NPP               
1 37849U 11061A   26061.83572128  .00000092  00000+0  64718-4 0  9991
2 37849  98.7862   3.4932 0000453 296.0738  64.0391 14.19541209743352
METEOSAT-10 (MSG-3)     
1 38552U 12035B   26061.73080794 -.00000019  00000+0  00000+0 0  9996
2 38552   4.4198  61.4700 0002487 292.1297  70.2445  1.00276905 49793
METOP-B                 
1 38771U 12049A   26061.75789492  .00000139  00000+0  83411-4 0  9991
2 38771  98.6657 115.3115 0001247 304.0928  56.0131 14.21441976698149
INSAT-3D                
1 39216U 13038B   26061.59628306 -.00000356  00000+0  00000+0 0  9993
2 39216   1.6508  83.9377 0002164 236.3244 184.2293  1.00269239 46019
FENGYUN 3C              
1 39260U 13052A   26061.89104866  .00000162  00000+0  10364-3 0  9993
2 39260  98.4880  40.7063 0014173 333.6790  26.3664 14.15726344643520
METEOR-M 2              
1 40069U 14037A   26061.85537257  .00000107  00000+0  68032-4 0  9991
2 40069  98.5008  41.4184 0005768 357.7280   2.3871 14.21424924604218
HIMAWARI-8              
1 40267U 14060A   26061.83377822 -.00000292  00000+0  00000+0 0  9997
2 40267   0.0178 119.6241 0000868 185.8972 295.8861  1.00270021 41695
FENGYUN 2G              
1 40367U 14090A   26061.62816638 -.00000317  00000+0  00000+0 0  9999
2 40367   5.3692  74.1056 0002028 153.4685 258.6220  1.00275077 40934
