[{"OBJECT_NAME":"DMSP 5D-3 F16 (USA 172)","OBJECT_ID":"2003-048A","EPOCH":"2026-03-02T20:02:15.999360","MEAN_MOTION":14.14458897,"ECCENTRICITY":0.0008198,"INCLINATION":98.9998,"RA_OF_ASC_NODE":84.9103,"ARG_OF_PERICENTER":89.7053,"MEAN_ANOMALY":269.9397,"EPHEMERIS_TYPE":0,"CLASSIFICATION_TYPE":"U","NORAD_CAT_ID":28054,"ELEMENT_SET_NO":999,"REV_AT_EPOCH":15444,"BSTAR":0.00011501,"MEAN_MOTION_DOT":1.75e-6,"MEAN_MOTION_DDOT":0},{"OBJECT_NAME":"METEOSAT-9 (MSG-2)","OBJECT_ID":"2005-049B","EPOCH":"2026-03-02T14:19:52.267008","MEAN_MOTION":1.00276214,"ECCENTRICITY":0.0001907,"INCLINATION":9.1208,"RA_OF_ASC_NODE":55.1996,"ARG_OF_PERICENTER":219.8462,"MEAN_ANOMALY":145.9946,"EPHEMERIS_TYPE":0,"CLASSIFICATION_TYPE":"U","NORAD_CAT_ID":28912,"ELEMENT_SET_NO":999,"REV_AT_EPOCH":593,"BSTAR":0,"MEAN_MOTION_DOT":1.12e-6,"MEAN_MOTION_DDOT":0},{"OBJECT_NAME":"DMSP 5D-3 F17 (USA 191)","OBJECT_ID":"2006-050A","EPOCH":"2026-03-02T17:57:20.516832","MEAN_MOTION":14.14960218,"ECCENTRICITY":0.0010157,"INCLINATION":98.7411,"RA_OF_ASC_NODE":70.4845,"ARG_OF_PERICENTER":6.7781,"MEAN_ANOMALY":353.3528,"EPHEMERIS_TYPE":0,"CLASSIFICATION_TYPE":"U","NORAD_CAT_ID":29522,"ELEMENT_SET_NO":999,"REV_AT_EPOCH":99736,"BSTAR":0.00013173,"MEAN_MOTION_DOT":2.12e-6,"MEAN_MOTION_DDOT":0},{"OBJECT_NAME":"FENGYUN 3A","OBJECT_ID":"2008-026A","EPOCH":"2026-03-02T18:10:24.976992","MEAN_MOTION":14.19543791,"ECCENTRICITY":0.0009839,"INCLINATION":98.679,"RA_OF_ASC_NODE":4.6385,"ARG_OF_PERICENTER":76.1481,"MEAN_ANOMALY":284.0789,"EPHEMERIS_TYPE":0,"CLASSIFICATION_TYPE":"U","NORAD_CAT_ID":32958,"ELEMENT_SET_NO":999,"REV_AT_EPOCH":92030,"BSTAR":7.7292e-5,"MEAN_MOTION_DOT":1.2e-6,"MEAN_MOTION_DDOT":0},{"OBJECT_NAME":"GOES 14","OBJECT_ID":"2009-033A","EPOCH":"2026-03-02T16:47:26.112192","MEAN_MOTION":1.00123384,"ECCENTRICITY":0.000216,"INCLINATION":1.4145,"RA_OF_ASC_NODE":84.4453,"ARG_OF_PERICENTER":295.0799,"MEAN_ANOMALY":235.5458,"EPHEMERIS_TYPE":0,"CLASSIFICATION_TYPE":"U","NORAD_CAT_ID":35491,"ELEMENT_SET_NO":999,"REV_AT_EPOCH":552,"BSTAR":0,"MEAN_MOTION_DOT":1.13e-6,"MEAN_MOTION_DDOT":0},{"OBJECT_NAME":"DMSP 5D-3 F18 (USA 210)","OBJECT_ID":"2009-057A","EPOCH":"2026-03-02T20:27:45.491040","MEAN_MOTION":14.14830647,"ECCENTRICITY":0.0010747,"INCLINATION":98.8952,"RA_OF_ASC_NODE":42.9053,"ARG_OF_PERICENTER":187.8876,"MEAN_ANOMALY":172.213,"EPHEMERIS_TYPE":0,"CLASSIFICATION_TYPE":"U","NORAD_CAT_ID":35951,"ELEMENT_SET_NO":999,"REV_AT_EPOCH":84455,"BSTAR":0.00018409,"MEAN_MOTION_DOT":3.11e-6,"MEAN_MOTION_DDOT":0},{"OBJECT_NAME":"EWS-G2 (GOES 15)","OBJECT_ID":"2010-008A","EPOCH":"2026-03-02T20:39:12.009024","MEAN_MOTION":1.00269153,"ECCENTRICITY":0.0001655,"INCLINATION":1.0052,"RA_OF_ASC_NODE":85.1762,"ARG_OF_PERICENTER":24.0248,"MEAN_ANOMALY":64.7263,"EPHEMERIS_TYPE":0,"CLASSIFICATION_TYPE":"U","NORAD_CAT_ID":36411,"ELEMENT_SET_NO":999,"REV_AT_EPOCH":5857,"BSTAR":0,"MEAN_MOTION_DOT":5.0e-8,"MEAN_MOTION_DDOT":0},{"OBJECT_NAME":"COMS 1","OBJECT_ID":"2010-032A","EPOCH":"2026-03-02T19:37:08.073120","MEAN_MOTION":1.0027253,"ECCENTRICITY":0.0001164,"INCLINATION":4.532,"RA_OF_ASC_NODE":76.8967,"ARG_OF_PERICENTER":272.6803,"MEAN_ANOMALY":233.4605,"EPHEMERIS_TYPE":0,"CLASSIFICATION_TYPE":"U","NORAD_CAT_ID":36744,"ELEMENT_SET_NO":999,"REV_AT_EPOCH":5002,"BSTAR":0,"MEAN_MOTION_DOT":-3.59e-6,"MEAN_MOTION_DDOT":0},{"OBJECT_NAME":"FENGYUN 3B","OBJECT_ID":"2010-059A","EPOCH":"2026-03-02T21:07:56.104608","MEAN_MOTION":14.14813983,"ECCENTRICITY":0.0022937,"INCLINATION":98.9786,"RA_OF_ASC_NODE":107.3757,"ARG_OF_PERICENTER":126.5324,"MEAN_ANOMALY":341.543,"EPHEMERIS_TYPE":0,"CLASSIFICATION_TYPE":"U","NORAD_CAT_ID":37214,"ELEMENT_SET_NO":999,"REV_AT_EPOCH":79239,"BSTAR":-0.00013465,"MEAN_MOTION_DOT":-3.05e-6,"MEAN_MOTION_DDOT":0},{"OBJECT_NAME":"SUOMI NPP","OBJECT_ID":"2011-061A","EPOCH":"2026-03-02T20:03:26.318592","MEAN_MOTION":14.19541209,"ECCENTRICITY":4.53e-5,"INCLINATION":98.7862,"RA_OF_ASC_NODE":3.4932,"ARG_OF_PERICENTER":296.0738,"MEAN_ANOMALY":64.0391,"EPHEMERIS_TYPE":0,"CLASSIFICATION_TYPE":"U","NORAD_CAT_ID":37849,"ELEMENT_SET_NO":999,"REV_AT_EPOCH":74335,"BSTAR":6.4718e-5,"MEAN_MOTION_DOT":9.2e-7,"MEAN_MOTION_DDOT":0},{"OBJECT_NAME":"METEOSAT-10 (MSG-3)","OBJECT_ID":"2012-035B","EPOCH":"2026-03-02T17:32:21.806016","MEAN_MOTION":1.00276905,"ECCENTRICITY":0.0002487,"INCLINATION":4.4198,"RA_OF_ASC_NODE":61.47,"ARG_OF_PERICENTER":292.1297,"MEAN_ANOMALY":70.2445,"EPHEMERIS_TYPE":0,"CLASSIFICATION_TYPE":"U","NORAD_CAT_ID":38552,"ELEMENT_SET_NO":999,"REV_AT_EPOCH":4979,"BSTAR":0,"MEAN_MOTION_DOT":-1.9e-7,"MEAN_MOTION_DDOT":0},{"OBJECT_NAME":"METOP-B","OBJECT_ID":"2012-049A","EPOCH":"2026-03-02T18:11:22.121088","MEAN_MOTION":14.21441976,"ECCENTRICITY":0.0001247,"INCLINATION":98.6657,"RA_OF_ASC_NODE":115.3115,"ARG_OF_PERICENTER":304.0928,"MEAN_ANOMALY":56.0131,"EPHEMERIS_TYPE":0,"CLASSIFICATION_TYPE":"U","NORAD_CAT_ID":38771,"ELEMENT_SET_NO":999,"REV_AT_EPOCH":69814,"BSTAR":8.3411e-5,"MEAN_MOTION_DOT":1.39e-6,"MEAN_MOTION_DDOT":0},{"OBJECT_NAME":"INSAT-3D","OBJECT_ID":"2013-038B","EPOCH":"2026-03-02T14:18:38.856384","MEAN_MOTION":1.00269239,"ECCENTRICITY":0.0002164,"INCLINATION":1.6508,"RA_OF_ASC_NODE":83.9377,"ARG_OF_PERICENTER":236.3244,"MEAN_ANOMALY":184.2293,"EPHEMERIS_TYPE":0,"CLASSIFICATION_TYPE":"U","NORAD_CAT_ID":39216,"ELEMENT_SET_NO":999,"REV_AT_EPOCH":4601,"BSTAR":0,"MEAN_MOTION_DOT":-3.56e-6,"MEAN_MOTION_DDOT":0},{"OBJECT_NAME":"FENGYUN 3C","OBJECT_ID":"2013-052A","EPOCH":"2026-03-02T21:23:06.604224","MEAN_MOTION":14.15726344,"ECCENTRICITY":0.0014173,"INCLINATION":98.488,"RA_OF_ASC_NODE":40.7063,"ARG_OF_PERICENTER":333.679,"MEAN_ANOMALY":26.3664,"EPHEMERIS_TYPE":0,"CLASSIFICATION_TYPE":"U","NORAD_CAT_ID":39260,"ELEMENT_SET_NO":999,"REV_AT_EPOCH":64352,"BSTAR":0.00010364,"MEAN_MOTION_DOT":1.62e-6,"MEAN_MOTION_DDOT":0},{"OBJECT_NAME":"METEOR-M 2","OBJECT_ID":"2014-037A","EPOCH":"2026-03-02T20:31:44.190048","MEAN_MOTION":14.21424924,"ECCENTRICITY":0.0005768,"INCLINATION":98.5008,"RA_OF_ASC_NODE":41.4184,"ARG_OF_PERICENTER":357.728,"MEAN_ANOMALY":2.3871,"EPHEMERIS_TYPE":0,"CLASSIFICATION_TYPE":"U","NORAD_CAT_ID":40069,"ELEMENT_SET_NO":999,"REV_AT_EPOCH":60421,"BSTAR":6.8032e-5,"MEAN_MOTION_DOT":1.07e-6,"MEAN_MOTION_DDOT":0},{"OBJECT_NAME":"HIMAWARI-8","OBJECT_ID":"2014-060A","EPOCH":"2026-03-02T20:00:38.438208","MEAN_MOTION":1.00270021,"ECCENTRICITY":8.68e-5,"INCLINATION":0.0178,"RA_OF_ASC_NODE":119.6241,"ARG_OF_PERICENTER":185.8972,"MEAN_ANOMALY":295.8861,"EPHEMERIS_TYPE":0,"CLASSIFICATION_TYPE":"U","NORAD_CAT_ID":40267,"ELEMENT_SET_NO":999,"REV_AT_EPOCH":4169,"BSTAR":0,"MEAN_MOTION_DOT":-2.92e-6,"MEAN_MOTION_DDOT":0},{"OBJECT_NAME":"FENGYUN 2G","OBJECT_ID":"2014-090A","EPOCH":"2026-03-02T15:04:33.575232","MEAN_MOTION":1.00275077,"ECCENTRICITY":0.0002028,"INCLINATION":5.3692,"RA_OF_ASC_NODE":74.1056,"ARG_OF_PERICENTER":153.4685,"MEAN_ANOMALY":258.622,"EPHEMERIS_TYPE":0,"CLASSIFICATION_TYPE":"U","NORAD_CAT_ID":40367,"ELEMENT_SET_NO":999,"REV_AT_EPOCH":4093,"BSTAR":0,"MEAN_MOTION_DOT":-3.17e-6,"MEAN_MOTION_DDOT":0}]
